2010 AJ30,e,7.5895,303.5476,350.6182,0.811581,1.3480513,0.30210875,160.4435,05/23.0/2014,2000,H22.7,0.15
# From MPO170308
2010 AL30,e,3.8300,112.3768,97.7123,1.046607,0.9205098,0.30782432,324.0992,05/23.0/2014,2000,H27.2,0.15
# From MPO170309
2010 AE40,e,21.4474,294.5565,155.3504,1.865757,0.3867422,0.45348848,263.4983,05/23.0/2014,2000,H23.9,0.15
# From MPO170309
2010 AF40,e,4.3030,119.2310,93.1407,1.239269,0.7144237,0.46482325,10.9804,05/23.0/2014,2000,H25.0,0.15
# From MPO190716
2010 AG40,e,2.0345,21.6723,183.6573,1.759784,0.4221968,0.60947220,286.6387,05/23.0/2014,2000,H22.1,0.15
# From MPO174049
2010 AY58,e,23.9084,124.9587,53.3894,3.284368,0.1655871,0.57603938,251.6381,05/23.0/2014,2000,H19.8,0.15
# From MPO174049
2010 AL60,e,16.1554,108.1957,339.5857,1.229112,0.7232970,0.16057422,84.4257,05/23.0/2014,2000,H22.4,0.15
# From MPO172397
2010 AM60,e,11.1618,114.2657,335.3850,2.411863,0.2631329,0.56907932,63.6460,05/23.0/2014,2000,H23.8,0.15
# From MPO170310
2010 AN60,e,4.5573,297.5233,123.4792,2.001084,0.3481819,0.57394035,206.5493,05/23.0/2014,2000,H26.9,0.15
# From MPO192083
2010 AO60,e,11.0735,310.0659,37.1421,0.951347,1.0621747,0.24808390,352.7491,05/23.0/2014,2000,H21.8,0.15
# From MPO186023
2010 AZ60,e,12.4939,156.2284,259.8978,4.358175,0.1083296,0.50407940,189.3637,05/23.0/2014,2000,H15.7,0.15
# From MPO172397
2010 AN61,e,3.6114,116.6183,8.3117,1.158870,0.7900450,0.13366725,167.7980,05/23.0/2014,2000,H27.0,0.15
# From MPO202475
2010 AJ72,e,11.6118,319.8862,237.5765,3.207676,0.1715609,0.35791636,233.1386,05/23.0/2014,2000,H16.1,0.15
# From MPO260804
2010 AB78,e,33.2603,316.9337,296.5237,2.253846,0.2912848,0.54691589,72.7518,05/23.0/2014,2000,H18.3,0.15
# From MPO194115
2010 AG79,e,32.9569,50.2050,13.8424,2.904498,0.1991120,0.57880399,321.4985,05/23.0/2014,2000,H20.2,0.15
# From MPO177792
2010 AQ81,e,8.5728,241.9165,264.3731,2.732554,0.2181981,0.58431880,345.7146,05/23.0/2014,2000,H20.0,0.15
# From MPO221139
2010 AZ85,e,17.7666,63.7137,265.6580,1.447667,0.5658494,0.00008261,177.0566,01/04.0/2010,2000,H,0.15
# From MPO221139
2010 AY95,e,9.4647,74.8179,164.3717,1.520790,0.5255333,0.06346887,176.6255,01/04.0/2010,2000,H,0.15
# From MPO221140
2010 AW108,e,28.0322,54.2748,25.5975,1.619929,0.4780353,0.19349965,354.9655,01/04.0/2010,2000,H,0.15
# From MPO177793
2010 AU118,e,43.7270,35.2061,339.6380,1.621297,0.4774304,0.30582004,147.8349,05/23.0/2014,2000,H17.7,0.15
# From MPO178131
2010 AG127,e,24.4456,250.3810,358.8134,1.636122,0.4709563,0.09000548,276.4763,01/04.0/2010,2000,H19.3,0.15
# From MPO258386
2010 BB,e,10.0348,279.8664,28.9810,0.820430,1.3263004,0.27713859,80.1541,05/23.0/2014,2000,H20.4,0.15
# From MPO190716
2010 BC,e,9.5468,121.0283,60.5280,1.929513,0.3677330,0.56731155,206.2289,05/23.0/2014,2000,H22.2,0.15
# From MPO172399
2010 BQ,e,37.0068,302.9082,148.4528,2.331679,0.2768223,0.54685116,87.3199,05/23.0/2014,2000,H20.2,0.15
# From MPO174050
2010 BG2,e,42.9349,128.2383,238.7953,3.404176,0.1569228,0.90730771,256.2082,05/23.0/2014,2000,H19.9,0.15
# From MPO181775
2010 BH2,e,24.6237,108.2746,45.6703,2.350609,0.2734850,0.46320320,57.9341,05/23.0/2014,2000,H19.5,0.15
# From MPO172399
2010 BK2,e,6.0413,278.1245,72.5655,0.903329,1.1479824,0.44735900,95.3075,05/23.0/2014,2000,H22.0,0.15
# From MPO281922
2010 BL2,e,59.9983,91.3035,199.5485,2.225680,0.2968314,0.78405095,138.8676,05/23.0/2014,2000,H16.4,0.15
# From MPO172399
2010 BU2,e,3.1628,123.7276,13.2190,2.400090,0.2650713,0.58574706,56.1190,05/23.0/2014,2000,H24.5,0.15
# From MPO216160
2010 BB3,e,10.8934,141.7437,347.3134,1.532581,0.5194800,0.18377721,100.9726,05/23.0/2014,2000,H20.3,0.15
# From MPO175322
2010 BC3,e,4.8461,359.1839,154.9812,3.179782,0.1738233,0.65487090,271.2211,05/23.0/2014,2000,H20.5,0.15
# From MPO174050
2010 BT3,e,13.5905,308.6000,149.9286,2.574614,0.2385810,0.54976018,23.0455,05/23.0/2014,2000,H21.4,0.15
# From MPO176874
2010 BZ4,e,10.0610,98.8795,51.2199,2.762402,0.2146712,0.62976177,334.2254,05/23.0/2014,2000,H22.5,0.15
# From MPO172400
2010 BG5,e,6.6058,318.7707,216.7016,1.472248,0.5517377,0.38686986,128.5262,05/23.0/2014,2000,H24.0,0.15
# From MPO221140
2010 BK25,e,15.5137,156.4013,6.9560,1.492716,0.5404286,0.04280110,351.8258,01/04.0/2010,2000,H,0.15
# From MPO221141
2010 BD33,e,14.1129,261.4368,261.2968,1.449799,0.5646021,0.01837070,350.9348,01/04.0/2010,2000,H,0.15
# From MPO221141
2010 BF35,e,4.5151,105.2307,145.5204,1.593129,0.4901485,0.03346565,171.9102,01/04.0/2010,2000,H,0.15
# From MPO221141
2010 BE66,e,6.4296,75.4062,0.9259,1.641090,0.4688192,0.00408706,358.9200,01/24.0/2010,2000,H,0.15
# From MPO221143
2010 BM116,e,15.0088,163.3043,280.1632,1.662197,0.4599181,0.01274536,356.4467,01/24.0/2010,2000,H,0.15
# From MPO171869
2010 CA,e,9.8723,134.5650,93.1106,1.316664,0.6523668,0.45865059,261.8346,05/23.0/2014,2000,H24.5,0.15
# From MPO190717
2010 CL,e,18.2869,315.9492,136.2807,1.571009,0.5005367,0.39014061,82.3078,05/23.0/2014,2000,H25.0,0.15
# From MPO190717
2010 CM,e,7.4313,125.0378,94.3661,2.628130,0.2313310,0.53093764,328.2582,05/23.0/2014,2000,H18.4,0.15
# From MPO174050
2010 CN,e,10.6519,317.9057,212.4095,1.389532,0.6017293,0.22362053,202.3491,05/23.0/2014,2000,H23.4,0.15
# From MPO192606
2010 CT,e,19.7464,176.1005,104.2927,0.887661,1.1785112,0.65749382,329.9315,05/23.0/2014,2000,H20.3,0.15
# From MPO171870
2010 CJ1,e,4.0824,138.1145,281.8188,1.562663,0.5045520,0.49445293,98.4564,05/23.0/2014,2000,H24.1,0.15
# From MPO171870
2010 CK1,e,26.6678,141.4506,79.1245,1.135476,0.8145863,0.20887111,135.5802,05/23.0/2014,2000,H24.0,0.15
# From MPO283063
2010 CL1,e,19.9917,149.5906,267.9835,1.797253,0.4090631,0.35356938,322.8697,05/23.0/2014,2000,H19.5,0.15
# From MPO190717
2010 CM1,e,5.1313,140.6793,309.5211,2.037960,0.3387744,0.51904279,184.4619,05/23.0/2014,2000,H25.2,0.15
# From MPEC 2014-G29
2010 CN1,e,20.9718,216.4696,192.4090,1.498896,0.5370899,0.43900955,154.8266,05/23.0/2014,2000,H18.8,0.15
# From MPO198980
2010 CO1,e,23.9636,351.6045,252.7662,1.011445,0.9689266,0.21728449,2.9207,05/23.0/2014,2000,H21.5,0.15
# From MPO260804
2010 CR1,e,25.7726,313.1285,70.5860,1.371752,0.6134666,0.73324939,282.0172,05/23.0/2014,2000,H18.5,0.15
# From MPO186025
2010 CP5,e,11.2511,156.9473,294.7486,3.283969,0.1656172,0.35561332,285.9281,05/23.0/2014,2000,H17.1,0.15
# From MPO174050
2010 CR5,e,5.7539,323.0079,49.4786,3.153994,0.1759595,0.82885233,296.7472,05/23.0/2014,2000,H19.8,0.15
# From MPO241980
2010 CG18,e,10.1552,78.8336,351.5256,1.438944,0.5710031,0.22614199,199.9539,05/23.0/2014,2000,H20.8,0.15
# From MPO275045
2010 CH18,e,27.1465,49.3646,109.7830,2.607167,0.2341266,0.57039040,357.8385,05/23.0/2014,2000,H19.0,0.15
# From MPO171873
2010 CJ18,e,7.7838,148.7018,63.4393,1.197545,0.7520840,0.25987571,50.7333,05/23.0/2014,2000,H26.8,0.15
# From MPO279169
2010 CL18,e,18.2628,160.1812,30.2283,2.682104,0.2243833,0.56146589,343.0740,05/23.0/2014,2000,H18.3,0.15
# From MPO174051
2010 CB19,e,6.0029,320.5279,76.5647,1.026288,0.9479823,0.31015118,108.7591,05/23.0/2014,2000,H24.5,0.15
# From MPO171874
2010 CC19,e,46.5720,144.1471,138.2507,1.108326,0.8447005,0.75346943,191.6340,05/23.0/2014,2000,H22.3,0.15
# From MPO260804
2010 CD19,e,20.7089,309.6226,132.4244,2.258355,0.2904127,0.57767349,101.5053,05/23.0/2014,2000,H18.0,0.15
# From MPO174051
2010 CE19,e,7.5998,143.0947,326.5940,1.939617,0.3648633,0.48375773,219.7165,05/23.0/2014,2000,H25.2,0.15
# From MPO273956
2010 CF19,e,7.1764,154.7701,265.2230,1.193029,0.7563580,0.26994824,148.6717,05/23.0/2014,2000,H21.7,0.15
# From MPO288486
2010 CG19,e,61.9364,148.9848,117.5465,1.563259,0.5042638,0.18670987,327.6900,05/23.0/2014,2000,H19.4,0.15
# From MPO171875
2010 CH19,e,10.2649,325.0629,80.7217,1.727350,0.4341436,0.51031800,357.0777,05/23.0/2014,2000,H22.2,0.15
# From MPO173708
2010 CJ19,e,25.9401,341.4601,74.2005,1.631428,0.4729901,0.03712199,108.2913,05/23.0/2014,2000,H19.4,0.15
# From MPO171875
2010 CK19,e,2.2576,328.5902,278.7732,0.986900,1.0052972,0.15020164,41.8786,05/23.0/2014,2000,H27.9,0.15
# From MPO174051
2010 CM19,e,4.3103,145.8283,353.0701,1.447925,0.5656984,0.31488363,165.8938,05/23.0/2014,2000,H25.0,0.15
# From MPO171876
2010 CN19,e,15.8832,145.1096,254.8738,1.018646,0.9586702,0.28652006,126.3780,05/23.0/2014,2000,H26.3,0.15
# From MPO171876
2010 CO19,e,9.8189,323.7432,208.2979,1.392106,0.6000612,0.26026012,199.2903,05/23.0/2014,2000,H25.7,0.15
# From MPO171876
2010 CP19,e,13.9785,145.2718,27.4287,1.187169,0.7619656,0.14780452,87.6066,05/23.0/2014,2000,H25.9,0.15
# From MPO174051
2010 CQ19,e,0.1589,211.7497,271.4015,2.823918,0.2076949,0.64955019,327.0269,05/23.0/2014,2000,H27.1,0.15
# From MPO171876
2010 CR19,e,25.6423,324.9036,219.3468,1.381933,0.6066995,0.26701093,202.8928,05/23.0/2014,2000,H26.4,0.15
# From MPO174051
2010 CS19,e,4.1824,143.6517,340.4227,1.741308,0.4289343,0.44116692,316.0436,05/23.0/2014,2000,H28.0,0.15
# From MPO190717
2010 CM44,e,6.2790,10.8275,197.0090,2.320753,0.2787794,0.47902502,56.6075,05/23.0/2014,2000,H19.3,0.15
# From MPO190717
2010 CN44,e,3.8454,189.7308,302.8695,2.847326,0.2051390,0.67683473,317.2758,05/23.0/2014,2000,H19.7,0.15
# From MPO190717
2010 CO44,e,6.1800,327.5220,73.7842,1.070405,0.8899836,0.23047813,23.4773,05/23.0/2014,2000,H24.6,0.15
# From MPO171877
2010 CP44,e,5.0618,319.4234,246.8253,2.090558,0.3260700,0.58143568,132.1844,05/23.0/2014,2000,H25.7,0.15
# From MPO196758
2010 CA55,e,55.5342,106.6158,303.5060,2.499950,0.2493487,0.73184928,10.5443,01/24.0/2010,2000,H21.3,0.15
# From MPO183706
2010 CB55,e,25.9212,144.6385,108.4237,1.132953,0.8173088,0.14802022,99.9386,05/23.0/2014,2000,H22.7,0.15
# From MPO264997
2010 CC55,e,6.7852,70.6107,18.1415,1.546078,0.5126925,0.46906442,106.8511,05/23.0/2014,2000,H22.5,0.15
# From MPO277203
2010 CD55,e,5.9323,326.8471,279.2677,1.023686,0.9515983,0.20120838,322.6612,05/23.0/2014,2000,H23.2,0.15
# From MPO273956
2010 CE55,e,2.5283,191.9902,58.5938,1.289954,0.6727333,0.22055944,244.4384,05/23.0/2014,2000,H22.2,0.15
# From MPO174053
